*******************************************************************************
 Revised: July 31, 2013             Moon / (Earth)                          301
 
 GEOPHYSICAL DATA (updated 2018-Aug-15):
  Vol. mean radius, km  = 1737.53+-0.03    Mass, x10^22 kg       =    7.349
  Radius (gravity), km  = 1738.0           Surface emissivity    =    0.92
  Radius (IAU), km      = 1737.4           GM, km^3/s^2          = 4902.800066
  Density, g/cm^3       =    3.3437        GM 1-sigma, km^3/s^2  =  +-0.0001  
  V(1,0)                =   +0.21          Surface accel., m/s^2 =    1.62
  Earth/Moon mass ratio = 81.3005690769    Farside crust. thick. = ~80 - 90 km
  Mean crustal density  = 2.97+-.07 g/cm^3 Nearside crust. thick.= 58+-8 km 
  Heat flow, Apollo 15  = 3.1+-.6 mW/m^2   Mean angular diameter = 31'05.2"
  Heat flow, Apollo 17  = 2.2+-.5 mW/m^2   Sid. rot. rate, rad/s = 0.0000026617
  Geometric Albedo      = 0.12             Mean solar day        = 29.5306 d
  Obliquity to orbit    = 6.67 deg         Orbit period          = 27.321582 d
  Semi-major axis, a    = 384400 km        Eccentricity          = 0.05490
  Mean motion, rad/s    = 2.6616995x10^-6  Inclination           = 5.145 deg
  Apsidal period        = 3231.50 d        Nodal period          = 6798.38 d
                                 Perihelion  Aphelion    Mean
  Solar Constant (W/m^2)         1414+-7     1323+-7     1368+-7
  Maximum Planetary IR (W/m^2)   1314        1226        1268
  Minimum Planetary IR (W/m^2)      5.2         5.2         5.2
********************************************************************************


*******************************************************************************
Ephemeris / WWW_USER Mon Nov 28 13:45:02 2022 Pasadena, USA      / Horizons
*******************************************************************************
Target body name: Moon (301)                      {source: DE441}
Center body name: Earth (399)                     {source: DE441}
Center-site name: BODY CENTER
*******************************************************************************
Start time      : A.D. 1980-Jan-01 00:00:00.0000 TDB
Stop  time      : A.D. 2020-Jan-01 00:00:00.0000 TDB
Step-size       : 14400 minutes
*******************************************************************************
Center geodetic : 0.00000000,0.00000000,0.0000000 {E-lon(deg),Lat(deg),Alt(km)}
Center cylindric: 0.00000000,0.00000000,0.0000000 {E-lon(deg),Dxy(km),Dz(km)}
Center radii    : 6378.1 x 6378.1 x 6356.8 km     {Equator, meridian, pole}    
Output units    : AU-D
Output type     : GEOMETRIC cartesian states
Output format   : 1 (position only)
EOP file        : eop.221110.p230202
EOP coverage    : DATA-BASED 1962-JAN-20 TO 2022-NOV-10. PREDICTS-> 2023-FEB-01
Reference frame : ICRF
*******************************************************************************
JDTDB
   X     Y     Z
*******************************************************************************
$$SOE
2453919.500000000 = A.D. 2006-Jul-03 00:00:00.0000 TDB [del_T=     65.184046 s]
 X =-2.693449665303790E-03 Y =-1.346664917745999E-04 Z =-7.998210864922695E-05
2453929.500000000 = A.D. 2006-Jul-13 00:00:00.0000 TDB [del_T=     65.183763 s]
 X = 1.746377290604213E-03 Y =-1.497654680636582E-03 Z =-8.052503798683425E-04
2453939.500000000 = A.D. 2006-Jul-23 00:00:00.0000 TDB [del_T=     65.183489 s]
 X =-2.029458092740710E-04 Y = 2.289561261435126E-03 Z = 1.242658533359978E-03
2453949.500000000 = A.D. 2006-Aug-02 00:00:00.0000 TDB [del_T=     65.183230 s]
 X =-2.169472107450507E-03 Y =-1.353124809625415E-03 Z =-7.519679395846238E-04
2453959.500000000 = A.D. 2006-Aug-12 00:00:00.0000 TDB [del_T=     65.182989 s]
 X = 2.403036094309589E-03 Y =-2.018922091931631E-04 Z =-9.149416941656734E-05
2453969.500000000 = A.D. 2006-Aug-22 00:00:00.0000 TDB [del_T=     65.182779 s]
 X =-1.674276267937586E-03 Y = 1.841373053346188E-03 Z = 9.920306332718478E-04
2453979.500000000 = A.D. 2006-Sep-01 00:00:00.0000 TDB [del_T=     65.182606 s]
 X =-9.366024309389982E-04 Y =-2.129970537365271E-03 Z =-1.173967286660022E-03
2453989.500000000 = A.D. 2006-Sep-11 00:00:00.0000 TDB [del_T=     65.182468 s]
 X = 2.034783236145203E-03 Y = 1.168808263314432E-03 Z = 6.579625142470001E-04
2453999.500000000 = A.D. 2006-Sep-21 00:00:00.0000 TDB [del_T=     65.182377 s]
 X =-2.575692898640326E-03 Y = 7.591811200557937E-04 Z = 3.936314839712388E-04
2454009.500000000 = A.D. 2006-Oct-01 00:00:00.0000 TDB [del_T=     65.182335 s]
 X = 6.223175328952552E-04 Y =-2.160143990957996E-03 Z =-1.177376846500029E-03
2454019.500000000 = A.D. 2006-Oct-11 00:00:00.0000 TDB [del_T=     65.182337 s]
 X = 8.337348439328349E-04 Y = 2.062650232636909E-03 Z = 1.135384940862642E-03
2454029.500000000 = A.D. 2006-Oct-21 00:00:00.0000 TDB [del_T=     65.182392 s]
 X =-2.626082467269483E-03 Y =-5.699162917127120E-04 Z =-3.343821913494483E-04
2454039.500000000 = A.D. 2006-Oct-31 00:00:00.0000 TDB [del_T=     65.182496 s]
 X = 1.941200511961921E-03 Y =-1.365665811857462E-03 Z =-7.248287291137468E-04
2454049.500000000 = A.D. 2006-Nov-10 00:00:00.0000 TDB [del_T=     65.182641 s]
 X =-6.914420658756067E-04 Y = 2.181318733134535E-03 Z = 1.177893827576130E-03
2454059.500000000 = A.D. 2006-Nov-20 00:00:00.0000 TDB [del_T=     65.182831 s]
 X =-1.817923021517872E-03 Y =-1.700263697634308E-03 Z =-9.428401980559324E-04
2454069.500000000 = A.D. 2006-Nov-30 00:00:00.0000 TDB [del_T=     65.183057 s]
 X = 2.459317128724907E-03 Y =-4.560920046466352E-06 Z = 3.114359511470475E-05
2454079.500000000 = A.D. 2006-Dec-10 00:00:00.0000 TDB [del_T=     65.183308 s]
 X =-1.990359150686029E-03 Y = 1.543138317380525E-03 Z = 8.028877857908628E-04
2454089.500000000 = A.D. 2006-Dec-20 00:00:00.0000 TDB [del_T=     65.183583 s]
 X =-4.148637714426683E-04 Y =-2.242703990820564E-03 Z =-1.217966357612349E-03
2454099.500000000 = A.D. 2006-Dec-30 00:00:00.0000 TDB [del_T=     65.183872 s]
 X = 1.918104565861178E-03 Y = 1.369256554976248E-03 Z = 7.767957870345838E-04
2454109.500000000 = A.D. 2007-Jan-09 00:00:00.0000 TDB [del_T=     65.184161 s]
 X =-2.656723210600185E-03 Y = 3.970282427533149E-04 Z = 1.579124657072202E-04
2454119.500000000 = A.D. 2007-Jan-19 00:00:00.0000 TDB [del_T=     65.184449 s]
 X = 1.101948188858456E-03 Y =-1.982814686186958E-03 Z =-1.048306781100968E-03
2454129.500000000 = A.D. 2007-Jan-29 00:00:00.0000 TDB [del_T=     65.184722 s]
 X = 5.508138852018445E-04 Y = 2.173609911356010E-03 Z = 1.191882248403153E-03
2454139.500000000 = A.D. 2007-Feb-08 00:00:00.0000 TDB [del_T=     65.184970 s]
 X =-2.498021020598348E-03 Y =-8.876030327853051E-04 Z =-5.443627564506472E-04
2454149.500000000 = A.D. 2007-Feb-18 00:00:00.0000 TDB [del_T=     65.185192 s]
 X = 2.166830009228640E-03 Y =-9.818086557866119E-04 Z =-4.795896561326562E-04
2454159.500000000 = A.D. 2007-Feb-28 00:00:00.0000 TDB [del_T=     65.185376 s]
 X =-1.051529119820674E-03 Y = 2.110774769681967E-03 Z = 1.122780718710176E-03
2454169.500000000 = A.D. 2007-Mar-10 00:00:00.0000 TDB [del_T=     65.185515 s]
 X =-1.552368947088240E-03 Y =-1.908689567825937E-03 Z =-1.078973046903570E-03
2454179.500000000 = A.D. 2007-Mar-20 00:00:00.0000 TDB [del_T=     65.185614 s]
 X = 2.342669387112693E-03 Y = 3.978578942697590E-04 Z = 2.757300123145405E-04
2454189.500000000 = A.D. 2007-Mar-30 00:00:00.0000 TDB [del_T=     65.185662 s]
 X =-2.271114960540181E-03 Y = 1.264439586517060E-03 Z = 6.303969874119858E-04
2454199.500000000 = A.D. 2007-Apr-09 00:00:00.0000 TDB [del_T=     65.185659 s]
 X =-9.122459138390014E-05 Y =-2.314303850746382E-03 Z =-1.257708788474619E-03
2454209.500000000 = A.D. 2007-Apr-19 00:00:00.0000 TDB [del_T=     65.185611 s]
 X = 1.541706582067642E-03 Y = 1.608711185486231E-03 Z = 9.106700324285310E-04
2454219.500000000 = A.D. 2007-Apr-29 00:00:00.0000 TDB [del_T=     65.185515 s]
 X =-2.708441928214969E-03 Y =-1.655041223835082E-05 Z =-8.048016476837726E-05
2454229.500000000 = A.D. 2007-May-09 00:00:00.0000 TDB [del_T=     65.185372 s]
 X = 1.406002058418251E-03 Y =-1.907506614697868E-03 Z =-9.877243272867950E-04
2454239.500000000 = A.D. 2007-May-19 00:00:00.0000 TDB [del_T=     65.185194 s]
 X = 9.774004116457751E-05 Y = 2.169344577096482E-03 Z = 1.168298846352226E-03
2454249.500000000 = A.D. 2007-May-29 00:00:00.0000 TDB [del_T=     65.184981 s]
 X =-2.258052054871921E-03 Y =-1.285467653615799E-03 Z =-7.580812235129644E-04
2454259.500000000 = A.D. 2007-Jun-08 00:00:00.0000 TDB [del_T=     65.184737 s]
 X = 2.360164864467639E-03 Y =-7.677640049592689E-04 Z =-3.342939610340553E-04
2454269.500000000 = A.D. 2007-Jun-18 00:00:00.0000 TDB [del_T=     65.184477 s]
 X =-1.407071886302956E-03 Y = 1.892594507625323E-03 Z = 9.648198320525939E-04
2454279.500000000 = A.D. 2007-Jun-28 00:00:00.0000 TDB [del_T=     65.184201 s]
 X =-1.087251314337108E-03 Y =-2.128236641473310E-03 Z =-1.178020403196311E-03
2454289.500000000 = A.D. 2007-Jul-08 00:00:00.0000 TDB [del_T=     65.183916 s]
 X = 2.328849408544830E-03 Y = 6.898497967551370E-04 Z = 4.569177367655072E-04
2454299.500000000 = A.D. 2007-Jul-18 00:00:00.0000 TDB [del_T=     65.183639 s]
 X =-2.427293397971553E-03 Y = 9.255569143393804E-04 Z = 4.020053412514498E-04
2454309.500000000 = A.D. 2007-Jul-28 00:00:00.0000 TDB [del_T=     65.183368 s]
 X = 4.200929422923341E-04 Y =-2.259760956820841E-03 Z =-1.196514710129865E-03
2454319.500000000 = A.D. 2007-Aug-07 00:00:00.0000 TDB [del_T=     65.183113 s]
 X = 1.285135475202320E-03 Y = 1.849518228119868E-03 Z = 1.046276859971504E-03
2454329.500000000 = A.D. 2007-Aug-17 00:00:00.0000 TDB [del_T=     65.182887 s]
 X =-2.643809478531064E-03 Y =-3.702483670925306E-04 Z =-3.073547574745963E-04
2454339.500000000 = A.D. 2007-Aug-27 00:00:00.0000 TDB [del_T=     65.182690 s]
 X = 1.749342947238253E-03 Y =-1.606872912869204E-03 Z =-7.936456348058425E-04
2454349.500000000 = A.D. 2007-Sep-06 00:00:00.0000 TDB [del_T=     65.182529 s]
 X =-3.153264188843175E-04 Y = 2.219910509860860E-03 Z = 1.182503709054286E-03
